start=new Date('2022-06-11T00:00:00.000Z').valueOf();
sats=[{"FILE":"3489795","ELEMENT_SET_NO":"999","REF_FRAME":"TEME","PERIAPSIS":"538.261","TLE_LINE2":"2 49421  53.2190 251.4741 0002147  43.4316 316.6845 15.08839566 32066","MEAN_MOTION_DOT":"0.00000618","EPHEMERIS_TYPE":"0","SEMIMAJOR_AXIS":"6917.882","INCLINATION":"53.2190","MEAN_ELEMENT_THEORY":"SGP4","GP_ID":"205825138","CLASSIFICATION_TYPE":"U","ARG_OF_PERICENTER":"43.4316","MEAN_MOTION_DDOT":"0.0000000000000","APOAPSIS":"541.232","MEAN_ANOMALY":"316.6845","SITE":"AFETR","OBJECT_ID":"2021-104P","MEAN_MOTION":"15.08839566","RA_OF_ASC_NODE":"251.4741","DECAY_DATE":null,"EPOCH":"2022-06-10T10:20:58.341120","REV_AT_EPOCH":"3206","TIME_SYSTEM":"UTC","CENTER_NAME":"EARTH","RCS_SIZE":"LARGE","OBJECT_NAME":"STARLINK-3112","TLE_LINE1":"1 49421U 21104P   22161.43123080  .00000618  00000-0  56958-4 0  9993","ECCENTRICITY":"0.00021470","COUNTRY_CODE":"US","OBJECT_TYPE":"PAYLOAD","NORAD_CAT_ID":"49421","BSTAR":"0.00005695800000","LAUNCH_DATE":"2021-11-13","PERIOD":"95.438"},{"PERIOD":"95.438","LAUNCH_DATE":"2021-11-13","BSTAR":"0.00006417700000","NORAD_CAT_ID":"49422","OBJECT_TYPE":"PAYLOAD","COUNTRY_CODE":"US","TLE_LINE1":"1 49422U 21104Q   22161.50852159  .00000733  00000-0  64177-4 0  9998","ECCENTRICITY":"0.00026710","OBJECT_NAME":"STARLINK-3161","RCS_SIZE":"LARGE","REV_AT_EPOCH":"3207","TIME_SYSTEM":"UTC","CENTER_NAME":"EARTH","DECAY_DATE":null,"EPOCH":"2022-06-10T12:12:16.265376","RA_OF_ASC_NODE":"251.1254","MEAN_MOTION":"15.08833520","OBJECT_ID":"2021-104Q","MEAN_ANOMALY":"331.2933","SITE":"AFETR","APOAPSIS":"541.613","MEAN_MOTION_DDOT":"0.0000000000000","ARG_OF_PERICENTER":"28.8206","CLASSIFICATION_TYPE":"U","GP_ID":"205823886","INCLINATION":"53.2188","MEAN_ELEMENT_THEORY":"SGP4","SEMIMAJOR_AXIS":"6917.900","EPHEMERIS_TYPE":"0","MEAN_MOTION_DOT":"0.00000733","TLE_LINE2":"2 49422  53.2188 251.1254 0002671  28.8206 331.2933 15.08833520 32073","REF_FRAME":"TEME","PERIAPSIS":"537.917","ELEMENT_SET_NO":"999","FILE":"3489795"},{"GP_ID":"205824136","CLASSIFICATION_TYPE":"U","ARG_OF_PERICENTER":"36.3991","APOAPSIS":"541.516","MEAN_MOTION_DDOT":"0.0000000000000","MEAN_ANOMALY":"323.7173","SITE":"AFETR","FILE":"3489795","ELEMENT_SET_NO":"999","PERIAPSIS":"538.012","REF_FRAME":"TEME","TLE_LINE2":"2 49423  53.2205 251.5071 0002532  36.3991 323.7173 15.08833922 32063","MEAN_MOTION_DOT":"-0.00000464","EPHEMERIS_TYPE":"0","SEMIMAJOR_AXIS":"6917.899","MEAN_ELEMENT_THEORY":"SGP4","INCLINATION":"53.2205","ECCENTRICITY":"0.00025320","TLE_LINE1":"1 49423U 21104R   22161.42387769 -.00000464  00000-0 -11007-4 0  9997","OBJECT_NAME":"STARLINK-3149","COUNTRY_CODE":"US","OBJECT_TYPE":"PAYLOAD","NORAD_CAT_ID":"49423","BSTAR":"-0.00001100700000","LAUNCH_DATE":"2021-11-13","PERIOD":"95.438","OBJECT_ID":"2021-104R","MEAN_MOTION":"15.08833922","RA_OF_ASC_NODE":"251.5071","EPOCH":"2022-06-10T10:10:23.032416","DECAY_DATE":null,"REV_AT_EPOCH":"3206","CENTER_NAME":"EARTH","TIME_SYSTEM":"UTC","RCS_SIZE":"LARGE"},{"REV_AT_EPOCH":"3210","TIME_SYSTEM":"UTC","CENTER_NAME":"EARTH","EPOCH":"2022-06-10T16:47:49.446240","DECAY_DATE":null,"RCS_SIZE":"LARGE","MEAN_MOTION":"15.08839824","OBJECT_ID":"2021-104S","RA_OF_ASC_NODE":"250.2665","NORAD_CAT_ID":"49424","LAUNCH_DATE":"2021-11-13","PERIOD":"95.438","BSTAR":"0.00000747300000","COUNTRY_CODE":"US","ECCENTRICITY":"0.00028810","TLE_LINE1":"1 49424U 21104S   22161.69987785 -.00000170  00000-0  74730-5 0  9997","OBJECT_NAME":"STARLINK-3135","OBJECT_TYPE":"PAYLOAD","INCLINATION":"53.2182","MEAN_ELEMENT_THEORY":"SGP4","EPHEMERIS_TYPE":"0","SEMIMAJOR_AXIS":"6917.881","FILE":"3490466","ELEMENT_SET_NO":"999","TLE_LINE2":"2 49424  53.2182 250.2665 0002881  37.4025 322.7167 15.08839824 32104","MEAN_MOTION_DOT":"-0.00000170","REF_FRAME":"TEME","PERIAPSIS":"537.753","MEAN_ANOMALY":"322.7167","SITE":"AFETR","MEAN_MOTION_DDOT":"0.0000000000000","APOAPSIS":"541.739","CLASSIFICATION_TYPE":"U","GP_ID":"205865122","ARG_OF_PERICENTER":"37.4025"},{"ARG_OF_PERICENTER":"34.5871","GP_ID":"205824639","CLASSIFICATION_TYPE":"U","APOAPSIS":"541.162","MEAN_MOTION_DDOT":"0.0000000000000","SITE":"AFETR","MEAN_ANOMALY":"325.5254","REF_FRAME":"TEME","PERIAPSIS":"538.344","TLE_LINE2":"2 49425  53.2183 250.9278 0002037  34.5871 325.5254 15.08837579 32094","MEAN_MOTION_DOT":"0.00000249","FILE":"3489795","ELEMENT_SET_NO":"999","EPHEMERIS_TYPE":"0","SEMIMAJOR_AXIS":"6917.888","MEAN_ELEMENT_THEORY":"SGP4","INCLINATION":"53.2183","OBJECT_TYPE":"PAYLOAD","ECCENTRICITY":"0.00020370","TLE_LINE1":"1 49425U 21104T   22161.55267338  .00000249  00000-0  33784-4 0  9997","OBJECT_NAME":"STARLINK-3139","COUNTRY_CODE":"US","BSTAR":"0.00003378400000","LAUNCH_DATE":"2021-11-13","PERIOD":"95.438","NORAD_CAT_ID":"49425","RA_OF_ASC_NODE":"250.9278","OBJECT_ID":"2021-104T","MEAN_MOTION":"15.08837579","RCS_SIZE":"LARGE","DECAY_DATE":null,"EPOCH":"2022-06-10T13:15:50.980032","REV_AT_EPOCH":"3209","TIME_SYSTEM":"UTC","CENTER_NAME":"EARTH"},{"OBJECT_TYPE":"PAYLOAD","OBJECT_NAME":"STARLINK-3114","TLE_LINE1":"1 49426U 21104U   22161.42755795 -.00000605  00000-0 -19931-4 0  9999","ECCENTRICITY":"0.00021760","COUNTRY_CODE":"US","BSTAR":"-0.00001993100000","PERIOD":"95.438","LAUNCH_DATE":"2021-11-13","NORAD_CAT_ID":"49426","RA_OF_ASC_NODE":"251.4899","OBJECT_ID":"2021-104U","MEAN_MOTION":"15.08830807","RCS_SIZE":"LARGE","DECAY_DATE":null,"EPOCH":"2022-06-10T10:15:41.006880","CENTER_NAME":"EARTH","REV_AT_EPOCH":"3206","TIME_SYSTEM":"UTC","ARG_OF_PERICENTER":"40.5266","GP_ID":"205823387","CLASSIFICATION_TYPE":"U","MEAN_MOTION_DDOT":"0.0000000000000","APOAPSIS":"541.279","MEAN_ANOMALY":"319.5888","SITE":"AFETR","REF_FRAME":"TEME","PERIAPSIS":"538.268","MEAN_MOTION_DOT":"-0.00000605","TLE_LINE2":"2 49426  53.2203 251.4899 0002176  40.5266 319.5888 15.08830807 32062","ELEMENT_SET_NO":"999","FILE":"3489795","SEMIMAJOR_AXIS":"6917.908","EPHEMERIS_TYPE":"0","INCLINATION":"53.2203","MEAN_ELEMENT_THEORY":"SGP4"},{"INCLINATION":"53.2186","MEAN_ELEMENT_THEORY":"SGP4","SEMIMAJOR_AXIS":"6917.929","EPHEMERIS_TYPE":"0","ELEMENT_SET_NO":"999","FILE":"3490466","MEAN_MOTION_DOT":"-0.00000226","TLE_LINE2":"2 49427  53.2186 250.3510 0002140  28.3378 331.7730 15.08824075 32118","REF_FRAME":"TEME","PERIAPSIS":"538.314","SITE":"AFETR","MEAN_ANOMALY":"331.7730","APOAPSIS":"541.275","MEAN_MOTION_DDOT":"0.0000000000000","CLASSIFICATION_TYPE":"U","GP_ID":"205864371","ARG_OF_PERICENTER":"28.3378","REV_AT_EPOCH":"3211","TIME_SYSTEM":"UTC","CENTER_NAME":"EARTH","DECAY_DATE":null,"EPOCH":"2022-06-10T16:21:20.445696","RCS_SIZE":"LARGE","MEAN_MOTION":"15.08824075","OBJECT_ID":"2021-104V","RA_OF_ASC_NODE":"250.3510","NORAD_CAT_ID":"49427","PERIOD":"95.439","LAUNCH_DATE":"2021-11-13","BSTAR":"0.00000391930000","COUNTRY_CODE":"US","TLE_LINE1":"1 49427U 21104V   22161.68148664 -.00000226  00000-0  39193-5 0  9990","OBJECT_NAME":"STARLINK-3131","ECCENTRICITY":"0.00021400","OBJECT_TYPE":"PAYLOAD"},{"NORAD_CAT_ID":"49428","BSTAR":"0.00008083900000","PERIOD":"95.438","LAUNCH_DATE":"2021-11-13","TLE_LINE1":"1 49428U 21104W   22161.53891171  .00000998  00000-0  80839-4 0  9990","ECCENTRICITY":"0.00024570","OBJECT_NAME":"STARLINK-3121","COUNTRY_CODE":"US","OBJECT_TYPE":"PAYLOAD","DECAY_DATE":null,"EPOCH":"2022-06-10T12:56:01.971744","REV_AT_EPOCH":"3316","TIME_SYSTEM":"UTC","CENTER_NAME":"EARTH","RCS_SIZE":"LARGE","OBJECT_ID":"2021-104W","MEAN_MOTION":"15.08837118","RA_OF_ASC_NODE":"250.9989","MEAN_MOTION_DDOT":"0.0000000000000","APOAPSIS":"541.454","SITE":"AFETR","MEAN_ANOMALY":"328.9672","GP_ID":"205833608","CLASSIFICATION_TYPE":"U","ARG_OF_PERICENTER":"31.1465","SEMIMAJOR_AXIS":"6917.889","EPHEMERIS_TYPE":"0","MEAN_ELEMENT_THEORY":"SGP4","INCLINATION":"53.2164","ELEMENT_SET_NO":"999","FILE":"3490124","REF_FRAME":"TEME","PERIAPSIS":"538.054","MEAN_MOTION_DOT":"0.00000998","TLE_LINE2":"2 49428  53.2164 250.9989 0002457  31.1465 328.9672 15.08837118 33162"},{"GP_ID":"205833888","CLASSIFICATION_TYPE":"U","ARG_OF_PERICENTER":"31.2318","MEAN_MOTION_DDOT":"0.0000000000000","APOAPSIS":"541.435","SITE":"AFETR","MEAN_ANOMALY":"328.8816","FILE":"3490154","ELEMENT_SET_NO":"999","PERIAPSIS":"538.111","REF_FRAME":"TEME","TLE_LINE2":"2 49430  53.2189 250.0733 0002402  31.2318 328.8816 15.08830931 33196","MEAN_MOTION_DOT":"-0.00000834","EPHEMERIS_TYPE":"0","SEMIMAJOR_AXIS":"6917.908","INCLINATION":"53.2189","MEAN_ELEMENT_THEORY":"SGP4","TLE_LINE1":"1 49430U 21104Y   22161.74404434 -.00000834  00000-0 -34270-4 0  9997","ECCENTRICITY":"0.00024020","OBJECT_NAME":"STARLINK-3138","COUNTRY_CODE":"US","OBJECT_TYPE":"PAYLOAD","NORAD_CAT_ID":"49430","BSTAR":"-0.00003427000000","LAUNCH_DATE":"2021-11-13","PERIOD":"95.438","OBJECT_ID":"2021-104Y","MEAN_MOTION":"15.08830931","RA_OF_ASC_NODE":"250.0733","DECAY_DATE":null,"EPOCH":"2022-06-10T17:51:25.430976","REV_AT_EPOCH":"3319","CENTER_NAME":"EARTH","TIME_SYSTEM":"UTC","RCS_SIZE":"LARGE"},{"INCLINATION":"53.2176","MEAN_ELEMENT_THEORY":"SGP4","SEMIMAJOR_AXIS":"6917.889","EPHEMERIS_TYPE":"0","MEAN_MOTION_DOT":"0.00000970","TLE_LINE2":"2 49431  53.2176 250.2375 0002643  29.4898 330.6243 15.08837338 32110","PERIAPSIS":"537.925","REF_FRAME":"TEME","ELEMENT_SET_NO":"999","FILE":"3490466","SITE":"AFETR","MEAN_ANOMALY":"330.6243","APOAPSIS":"541.582","MEAN_MOTION_DDOT":"0.0000000000000","ARG_OF_PERICENTER":"29.4898","CLASSIFICATION_TYPE":"U","GP_ID":"205864621","RCS_SIZE":"LARGE","REV_AT_EPOCH":"3211","CENTER_NAME":"EARTH","TIME_SYSTEM":"UTC","DECAY_DATE":null,"EPOCH":"2022-06-10T16:54:30.062304","RA_OF_ASC_NODE":"250.2375","MEAN_MOTION":"15.08837338","OBJECT_ID":"2021-104Z","PERIOD":"95.438","LAUNCH_DATE":"2021-11-13","BSTAR":"0.00007905000000","NORAD_CAT_ID":"49431","OBJECT_TYPE":"PAYLOAD","COUNTRY_CODE":"US","TLE_LINE1":"1 49431U 21104Z   22161.70451461  .00000970  00000-0  79050-4 0  9990","OBJECT_NAME":"STARLINK-3153","ECCENTRICITY":"0.00026430"}];
